STARLINK-30505          
1 57972U 23151J   26067.11927383  .00035659  00000+0  13308-2 0  9991
2 57972  43.0004 345.0806 0001631 252.0236 108.0438 15.26785781135520
KUIPER-00209            
1 67776U 26030N   26068.61786546  .00035298  00000+0  11963-2 0  9997
2 67776  51.8838 220.0775 0012191  59.1967 301.0215 15.30161950  5077
